KUIPER-00157            
1 65970U 25228Z   25336.57092320  .00033395  00000+0  96524-3 0  9994
2 65970  51.8797  69.6518 0006921 342.6006  17.4742 15.35312670  8859
